COSMOS 1953             
1 19210U 88050A   16051.45564254  .00002167  00000-0  15218-3 0  9998
2 19210  82.5197 141.1841 0015085 104.8126 255.4773 15.04572187505236
SL-8 R/B                
1 19257U 88053B   16052.44800911  .00000067  00000-0  31170-4 0  9998
2 19257  74.0498  22.1195 0019711  29.2171 114.0977 14.37287456449552
COSMOS 1975             
1 19573U 88093A   16052.21393442  .00000871  00000-0  61667-4 0  9991
2 19573  82.5187  91.5744 0015990 135.2184 225.0336 15.03474098487377
SL-14 R/B               
1 19574U 88093B   16051.63297523  .00000249  00000-0  27607-4 0  9995
2 19574  82.5296 236.1841 0020190 267.3276 160.3130 14.83121455477927
SL-16 R/B               
1 19650U 88102B   16051.36336720 -.00000201  00000-0 -78049-4 0  9990
2 19650  71.0011 310.3203 0015220 206.1680 153.8675 14.15731357407652
INTERCOSMOS 24          
1 20261U 89080A   16051.30029909  .00000421  00000-0  11696-3 0  9994
2 20261  82.5990 322.7143 1205624 130.1999 241.1095 12.55722075205353
SL-14 R/B               
1 20262U 89080C   16051.88382589  .00000154  00000-0  46980-4 0  9992
2 20262  82.5982   4.9647 1236318 276.0940  70.0983 12.48791984201519
DELTA 1 R/B             
1 20323U 89089B   16051.62854210  .00000142  00000-0  45936-4 0  9993
2 20323  97.0671  69.2969 0072573 157.9478 202.4869 14.48090682384882
DELTA 2 R/B(1)          
1 20453U 90008B   16052.49874271  .00004473  00000-0  26537-3 0  9991
2 20453  35.6244 176.3805 0296855 127.5579 235.2490 14.80892666376697
COSMOS 2058             
1 20465U 90010A   16051.85495113  .00001266  00000-0  10731-3 0  9996
2 20465  82.4925 351.4498 0017242 115.8319 244.4684 14.97042975413162
SL-14 R/B               
1 20466U 90010B   16052.52268302  .00000193  00000-0  21723-4 0  9992
2 20466  82.5021 103.2603 0021982 118.6162 241.7266 14.81192052406191
SL-14 R/B               
1 20511U 90018B   16052.50801019  .00000228  00000-0  27135-4 0  9999
2 20511  82.5215  42.6443 0016012 251.0541 228.8969 14.79854186400826
HST                     
1 20580U 90037B   16052.12865412  .00001561  00000-0  87224-4 0  9997
2 20580  28.4703 311.6506 0002914  33.6674 112.8700 15.08176681217426
SL-16 R/B               
1 20625U 90046B   16051.55744204 -.00000045  00000-0  14487-5 0  9997
2 20625  70.9991  82.0588 0012121 126.1584  29.9730 14.14596883329583
COSMOS 2084             
1 20663U 90055A   16051.45778864  .00001341  00000-0  13799-3 0  9999
2 20663  62.7937  38.6359 0112409  41.2612 319.6908 14.91018841387810
SL-6 R/B(2)             
1 20666U 90055D   16051.83922386  .00001127  00000-0  11437-3 0  9993
2 20666  62.7854 317.5663 0126762  61.5870 299.7931 14.91417972389225
SL-8 R/B                
1 20775U 90078B   16052.50352050  .00004609  00000-0  23393-3 0  9991
2 20775  82.9274  82.1470 0602523  23.0619 339.6429 14.27405802279968
SL-8 R/B                
1 21088U 91006B   16051.45965436  .00000092  00000-0  77980-4 0  9996
2 21088  82.9433  19.0719 0021402 229.5728 248.6472 13.77028402259161
OKEAN-3                 
1 21397U 91039A   16052.09033397  .00000880  00000-0  83903-4 0  9995
2 21397  82.5195 236.2133 0019227  52.1127 308.1828 14.92080778337888
COSMOS 2151             
1 21422U 91042A   16051.83399258  .00000720  00000-0  69158-4 0  9999
2 21422  82.5036 345.3640 0015895 103.1390 257.1604 14.91541114336599
SL-14 R/B               
1 21423U 91042B   16052.50510574  .00000241  00000-0  28971-4 0  9997
2 21423  82.4917  51.5173 0018488  32.5754 327.6595 14.79607385331354
ERS-1                   
1 21574U 91050A   16052.46577444  .00000198  00000-0  80016-4 0  9996
2 21574  98.4014   2.9952 0032328 316.2844  43.5784 14.37456338288384
ARIANE 40 R/B           
1 21610U 91050F   16052.13790512  .00000102  00000-0  46360-4 0  9993
2 21610  98.6723  97.8846 0002222 314.6903 107.1251 14.40702474290701
INTERCOSMOS 25          
1 21819U 91086A   16052.12850507  .00001677  00000-0  32252-3 0  9995
2 21819  82.5635 352.8155 1526882  32.3257 336.2728 12.04082670 54252
SL-14 R/B               
1 21820U 91086B   16052.47212562  .00000236  00000-0  44646-4 0  9999
2 21820  82.5593  42.5821 1577789 201.0502 151.7955 11.93109946 49338
SL-8 R/B                
1 21876U 92008B   16050.92373824  .00000079  00000-0  66310-4 0  9999
2 21876  82.9266 116.3822 0033502 304.4752 117.0326 13.75573120204718
SL-8 R/B                
1 21938U 92020B   16050.96430529  .00000015  00000-0 -74015-6 0  9996
2 21938  82.9329 359.2054 0030531  99.7157 324.9811 13.75230883196572
SL-16 R/B               
1 22220U 92076B   16051.90280554 -.00000076  00000-0 -13959-4 0  9994
2 22220  71.0020 354.4080 0015108 284.7530 131.0810 14.16388855202487
SL-16 R/B               
1 22285U 92093B   16052.53659858 -.00000237  00000-0 -98078-4 0  9995
2 22285  71.0225 142.6533 0003292 178.1041 182.0095 14.14991037194402
COSMOS 2228             
1 22286U 92094A   16052.21452506  .00000623  00000-0  66124-4 0  9997
2 22286  82.5207 108.4274 0019097 281.8286  78.0789 14.87351652250843
SL-16 R/B               
1 22566U 93016B   16051.85012833 -.00000290  00000-0 -12537-3 0  9997
2 22566  71.0097 359.3542 0009249 160.7649 199.3825 14.14922307183041
COSMOS 2242             
1 22626U 93024A   16051.69607572  .00000722  00000-0  77035-4 0  9998
2 22626  82.5239 136.5875 0017631 282.7803  77.1443 14.87359822234422
SL-16 R/B               
1 22803U 93059B   16052.48827145 -.00000044  00000-0  19763-5 0  9994
2 22803  70.9900 184.4599 0015851  33.0273 327.1837 14.16733223160055
ARIANE 40 R/B           
1 22830U 93061H   16051.63266824  .00000064  00000-0  41639-4 0  9991
2 22830  98.8828  49.8737 0009886 255.7359 239.8998 14.31399079169218
COSMOS 2278             
1 23087U 94023A   16052.21191874 -.00000256  00000-0 -11054-3 0  9994
2 23087  71.0524 286.2956 0011087 238.1480 121.8563 14.13704041126372
SL-16 R/B               
1 23088U 94023B   16051.88890685 -.00000148  00000-0 -51950-4 0  9993
2 23088  70.9992 214.3181 0001340 154.0281 206.0908 14.14640288127337
SL-16 R/B               
1 23343U 94074B   16052.15310953  .00000103  00000-0  22368-4 0  9999
2 23343  98.2044  76.8489 0007159 167.1732 233.0232 14.76635398145697
SL-16 R/B               
1 23405U 94077B   16051.44149808  .00000181  00000-0  11799-3 0  9992
2 23405  70.9843 150.3586 0004156 304.4644  55.6085 14.15178929 97211
ERS-2                   
1 23560U 95021A   16051.38261301  .00006231  00000-0  30923-3 0  9992
2 23560  98.5094 335.4122 0004916 127.1361 233.0319 15.18134320102062
ARIANE 40+ R/B          
1 23561U 95021B   16051.59404595  .00000174  00000-0  73124-4 0  9991
2 23561  98.7602  36.4925 0005958 244.0736 251.7069 14.37709043 91900
SL-16 R/B               
1 23705U 95058B   16051.29848191  .00000100  00000-0  76005-4 0  9992
2 23705  71.0233 322.1426 0014112 307.4000  52.5837 14.15079019 48872
SL-16 R/B               
1 24298U 96051B   16052.00929339 -.00000040  00000-0  47033-5 0  9992
2 24298  70.8363 358.5118 0017481 190.0085 170.0689 14.12387768  3730
ORBVIEW 2 (SEASTAR)     
1 24883U 97037A   16052.17101623  .00000116  00000-0  57727-4 0  9996
2 24883  98.5120 162.0181 0003512  95.9317 264.2267 14.33288111982859
SL-16 R/B               
1 25400U 98043G   16051.82664295  .00000022  00000-0  26975-4 0  9997
2 25400  98.4229  11.2803 0008689 268.1797  91.8388 14.25370904916359
SL-16 R/B               
1 25407U 98045B   16051.86037675 -.00000214  00000-0 -84606-4 0  9996
2 25407  71.0139 335.0052 0009658 232.9664 127.0577 14.15739262907914
ISS (ZARYA)             
1 25544U 98067A   16052.59605686  .00007818  00000-0  12479-3 0  9999
2 25544  51.6429 279.4503 0004090 149.8816 298.0980 15.54223290986843
SL-8 R/B                
1 25723U 99022C   16051.84228455  .00012558  00000-0  25683-3 0  9990
2 25723  48.4176 205.1797 0014120 240.2748 235.4871 15.46305507931657
CZ-4B R/B               
1 25732U 99025C   16052.03928539  .00000007  00000-0  25875-4 0  9995
2 25732  98.9647  42.5924 0037845  25.3303 359.1017 14.17599909868320
OKEAN-O                 
1 25860U 99039A   16051.86959685  .00000428  00000-0  69322-4 0  9990
2 25860  98.1298  25.8563 0000879 102.3394 257.7914 14.76293517892666
SL-16 R/B               
1 25861U 99039B   16051.52906057  .00000226  00000-0  38430-4 0  9991
2 25861  98.0382  15.6674 0015337 191.9733 284.8694 14.78278310894468
TERRA                   
1 25994U 99068A   16052.41958178  .00001205  00000-0  27739-3 0  9997
2 25994  98.1987 128.3465 0001450 107.3528 252.7809 14.57136874860517
SL-14 R/B               
1 26874U 01032B   16052.21294884  .00023462  00000-0  15615-3 0  9993
2 26874  82.4601  49.4532 0005452 292.3634  67.7052 15.75228807817190
ENVISAT                 
1 27386U 02009A   16052.14644179  .00000038  00000-0  26447-4 0  9995
2 27386  98.2996 109.6649 0000901  82.3979 277.7324 14.37856177731804
IDEFIX & ARIANE 42P R/B 
1 27422U 02021B   16052.15992360  .00000043  00000-0  32848-4 0  9997
2 27422  98.2378  73.1068 0011570 221.3071 138.7237 14.29232502717827
AQUA                    
1 27424U 02022A   16052.10709671  .00000345  00000-0  86576-4 0  9998
2 27424  98.2227 354.3941 0001267  96.1376 324.1537 14.57093804734075
CZ-4B R/B               
1 27432U 02024C   16051.94503916  .00000011  00000-0  29241-4 0  9990
2 27432  98.9213  18.5846 0049874 319.0348  99.7612 14.14005723710643
MIDORI II (ADEOS-II)    
1 27597U 02056A   16052.51872784  .00000129  00000-0  69489-4 0  9991
2 27597  98.3107  38.2963 0000778  31.5160  76.5131 14.27184210686710
H-2A R/B                
1 27601U 02056E   16052.26137591  .00000112  00000-0  56719-4 0  9993
2 27601  98.4291 129.2166 0071067 283.3848 120.2711 14.31689109688856
CZ-4B R/B               
1 28059U 03049C   16051.73762009  .00000090  00000-0  34043-4 0  9994
2 28059  98.6300 280.1545 0049084 277.7616 123.3950 14.52424839653647
CZ-2C R/B               
1 28222U 04012C   16051.88885800  .00002384  00000-0  15403-3 0  9994
2 28222  97.4594  13.9235 0051002  41.2637  14.1724 15.08103698647894
